{"type": "FeatureCollection", "features": [ {"type": "Feature", "properties": {"norad_id": 51444, "name": "CSG-2", "group": "resource", "lat": 1.3919263046255475, "lon": 161.70249391446055, "alt_km": 625.2942916542306, "timestamp": "2025-12-06T11:28:10.687073+00:00", "meta": {"OBJECT_NAME": "CSG-2", "OBJECT_ID": "2022-008A", "EPOCH": "2025-12-05T22:30:04.584384", "MEAN_MOTION": 14.82152698, "ECCENTRICITY": 0.00015003, "INCLINATION": 97.8814, "RA_OF_ASC_NODE": 161.3633, "ARG_OF_PERICENTER": 88.8517, "MEAN_ANOMALY": 271.2868, "EPHEMERIS_TYPE": 0, "CLASSIFICATION_TYPE": "U", "NORAD_CAT_ID": 51444, "ELEMENT_SET_NO": 999, "REV_AT_EPOCH": 20796, "BSTAR": 0.00011371251, "MEAN_MOTION_DOT": 8.53e-06, "MEAN_MOTION_DDOT": 0}, "tle": {"line1": "1 51444U 22008A   25339.93755306  .00000853  00000+0  11371-3 0  9991", "line2": "2 51444  97.8814 161.3633 0001500  88.8517 271.2868 14.82152698207967"}}, "geometry": {"type": "Point", "coordinates": [161.70249391446055, 1.3919263046255475]}}, {"type": "Feature", "properties": {"norad_id": 52912, "name": "GAOFEN-12 03", "group": "resource", "lat": -24.151845813549194, "lon": -128.48239925826417, "alt_km": 636.3688062540123, "timestamp": "2025-12-06T11:28:10.687084+00:00", "meta": {"OBJECT_NAME": "GAOFEN-12 03", "OBJECT_ID": "2022-069A", "EPOCH": "2025-12-05T22:35:42.417888", "MEAN_MOTION": 14.79583435, "ECCENTRICITY": 0.00023162, "INCLINATION": 97.849, "RA_OF_ASC_NODE": 227.4473, "ARG_OF_PERICENTER": 73.77, "MEAN_ANOMALY": 286.3767, "EPHEMERIS_TYPE": 0, "CLASSIFICATION_TYPE": "U", "NORAD_CAT_ID": 52912, "ELEMENT_SET_NO": 999, "REV_AT_EPOCH": 18603, "BSTAR": 0.00029981334, "MEAN_MOTION_DOT": 2.195e-05, "MEAN_MOTION_DDOT": 0}, "tle": {"line1": "1 52912U 22069A   25339.94146317  .00002195  00000+0  29981-3 0  9993", "line2": "2 52912  97.8490 227.4473 0002316  73.7700 286.3767 14.79583435186039"}}, "geometry": {"type": "Point", "coordinates": [-128.48239925826417, -24.151845813549194]}}, {"type": "Feature", "properties": {"norad_id": 54754, "name": "SWOT", "group": "resource", "lat": -60.88632585509426, "lon": -87.80487200553132, "alt_km": 900.415625800666, "timestamp": "2025-12-06T11:28:10.687095+00:00", "meta": {"OBJECT_NAME": "SWOT", "OBJECT_ID": "2022-173A", "EPOCH": "2025-12-05T22:03:10.725696", "MEAN_MOTION": 14.00173113, "ECCENTRICITY": 3.47e-05, "INCLINATION": 77.61, "RA_OF_ASC_NODE": 296.1977, "ARG_OF_PERICENTER": 133.8234, "MEAN_ANOMALY": 226.2946, "EPHEMERIS_TYPE": 0, "CLASSIFICATION_TYPE": "U", "NORAD_CAT_ID": 54754, "ELEMENT_SET_NO": 999, "REV_AT_EPOCH": 15210, "BSTAR": 0.00011405967, "MEAN_MOTION_DOT": 1.66e-06, "MEAN_MOTION_DDOT": 0}, "tle": {"line1": "1 54754U 22173A   25339.91887414  .00000166  00000+0  11406-3 0  9991", "line2": "2 54754  77.6100 296.1977 0000347 133.8234 226.2946 14.00173113152108"}}, "geometry": {"type": "Point", "coordinates": [-87.80487200553132, -60.88632585509426]}}, {"type": "Feature", "properties": {"norad_id": 57654, "name": "GAOFEN-12 04", "group": "resource", "lat": 36.170136114490184, "lon": 82.16537704875205, "alt_km": 627.5713872586302, "timestamp": "2025-12-06T11:28:10.687105+00:00", "meta": {"OBJECT_NAME": "GAOFEN-12 04", "OBJECT_ID": "2023-123A", "EPOCH": "2025-12-05T23:27:48.013056", "MEAN_MOTION": 14.79668585, "ECCENTRICITY": 0.00014263, "INCLINATION": 97.912, "RA_OF_ASC_NODE": 255.8374, "ARG_OF_PERICENTER": 72.6094, "MEAN_ANOMALY": 287.5274, "EPHEMERIS_TYPE": 0, "CLASSIFICATION_TYPE": "U", "NORAD_CAT_ID": 57654, "ELEMENT_SET_NO": 999, "REV_AT_EPOCH": 12405, "BSTAR": 0.0003699442, "MEAN_MOTION_DOT": 2.725e-05, "MEAN_MOTION_DDOT": 0}, "tle": {"line1": "1 57654U 23123A   25339.97763904  .00002725  00000+0  36994-3 0  9994", "line2": "2 57654  97.9120 255.8374 0001426  72.6094 287.5274 14.79668585124058"}}, "geometry": {"type": "Point", "coordinates": [82.16537704875205, 36.170136114490184]}}, {"type": "Feature", "properties": {"norad_id": 59065, "name": "PARS 1", "group": "resource", "lat": -62.18646432291544, "lon": 116.89185129597071, "alt_km": 458.7523444689732, "timestamp": "2025-12-06T11:28:10.687115+00:00", "meta": {"OBJECT_NAME": "PARS 1", "OBJECT_ID": "2024-039Q", "EPOCH": "2025-12-05T21:56:57.025824", "MEAN_MOTION": 15.40747574, "ECCENTRICITY": 0.00126931, "INCLINATION": 97.4626, "RA_OF_ASC_NODE": 310.7041, "ARG_OF_PERICENTER": 92.436, "MEAN_ANOMALY": 267.8339, "EPHEMERIS_TYPE": 0, "CLASSIFICATION_TYPE": "U", "NORAD_CAT_ID": 59065, "ELEMENT_SET_NO": 999, "REV_AT_EPOCH": 9883, "BSTAR": 0.00041023472, "MEAN_MOTION_DOT": 0.0001675, "MEAN_MOTION_DDOT": 0}, "tle": {"line1": "1 59065U 24039Q   25339.91454891  .00016750  00000+0  41023-3 0  9997", "line2": "2 59065  97.4626 310.7041 0012693  92.4360 267.8339 15.40747574 98832"}}, "geometry": {"type": "Point", "coordinates": [116.89185129597071, -62.18646432291544]}}, {"type": "Feature", "properties": {"norad_id": 59371, "name": "RESURS-P 4", "group": "resource", "lat": -43.393288441986805, "lon": 100.01988379079994, "alt_km": 477.890210437954, "timestamp": "2025-12-06T11:28:10.687125+00:00", "meta": {"OBJECT_NAME": "RESURS-P 4", "OBJECT_ID": "2024-061A", "EPOCH": "2025-12-05T21:57:19.171008", "MEAN_MOTION": 15.32003678, "ECCENTRICITY": 0.00019742, "INCLINATION": 97.2539, "RA_OF_ASC_NODE": 286.385, "ARG_OF_PERICENTER": 53.9122, "MEAN_ANOMALY": 306.2302, "EPHEMERIS_TYPE": 0, "CLASSIFICATION_TYPE": "U", "NORAD_CAT_ID": 59371, "ELEMENT_SET_NO": 999, "REV_AT_EPOCH": 9416, "BSTAR": 0.00020454408, "MEAN_MOTION_DOT": 6.244e-05, "MEAN_MOTION_DDOT": 0}, "tle": {"line1": "1 59371U 24061A   25339.91480522  .00006244  00000+0  20454-3 0  9994", "line2": "2 59371  97.2539 286.3850 0001974  53.9122 306.2302 15.32003678 94168"}}, "geometry": {"type": "Point", "coordinates": [100.01988379079994, -43.393288441986805]}}, {"type": "Feature", "properties": {"norad_id": 59625, "name": "LEGION 1", "group": "resource", "lat": 77.60899737369265, "lon": 18.19491126241352, "alt_km": 509.8241146913342, "timestamp": "2025-12-06T11:28:10.687136+00:00", "meta": {"OBJECT_NAME": "LEGION 1", "OBJECT_ID": "2024-081A", "EPOCH": "2025-12-05T22:26:52.783296", "MEAN_MOTION": 15.16377689, "ECCENTRICITY": 0.00044799, "INCLINATION": 97.5225, "RA_OF_ASC_NODE": 54.6326, "ARG_OF_PERICENTER": 346.1078, "MEAN_ANOMALY": 14.0031, "EPHEMERIS_TYPE": 0, "CLASSIFICATION_TYPE": "U", "NORAD_CAT_ID": 59625, "ELEMENT_SET_NO": 999, "REV_AT_EPOCH": 8824, "BSTAR": 0.00041093004, "MEAN_MOTION_DOT": 7.915e-05, "MEAN_MOTION_DDOT": 0}, "tle": {"line1": "1 59625U 24081A   25339.93533314  .00007915  00000+0  41093-3 0  9996", "line2": "2 59625  97.5225  54.6326 0004479 346.1078  14.0031 15.16377689 88242"}}, "geometry": {"type": "Point", "coordinates": [18.19491126241352, 77.60899737369265]}}, {"type": "Feature", "properties": {"norad_id": 59626, "name": "LEGION 2", "group": "resource", "lat": -77.14308703412773, "lon": -160.12136890639243, "alt_km": 521.9832452857481, "timestamp": "2025-12-06T11:28:10.687146+00:00", "meta": {"OBJECT_NAME": "LEGION 2", "OBJECT_ID": "2024-081B", "EPOCH": "2025-12-05T21:39:30.068640", "MEAN_MOTION": 15.16387214, "ECCENTRICITY": 0.0006106, "INCLINATION": 97.5226, "RA_OF_ASC_NODE": 54.6868, "ARG_OF_PERICENTER": 321.5688, "MEAN_ANOMALY": 38.511, "EPHEMERIS_TYPE": 0, "CLASSIFICATION_TYPE": "U", "NORAD_CAT_ID": 59626, "ELEMENT_SET_NO": 999, "REV_AT_EPOCH": 8824, "BSTAR": 0.00044599734, "MEAN_MOTION_DOT": 8.601e-05, "MEAN_MOTION_DDOT": 0}, "tle": {"line1": "1 59626U 24081B   25339.90243135  .00008601  00000+0  44600-3 0  9993", "line2": "2 59626  97.5226  54.6868 0006106 321.5688  38.5110 15.16387214 88242"}}, "geometry": {"type": "Point", "coordinates": [-160.12136890639243, -77.14308703412773]}}, {"type": "Feature", "properties": {"norad_id": 60182, "name": "ALOS-4 (DAICHI-4)", "group": "resource", "lat": 28.382103220074473, "lon": 71.09902831079167, "alt_km": 629.4187169903707, "timestamp": "2025-12-06T11:28:10.687156+00:00", "meta": {"OBJECT_NAME": "ALOS-4 (DAICHI-4)", "OBJECT_ID": "2024-123A", "EPOCH": "2025-12-05T22:21:17.611776", "MEAN_MOTION": 14.79468095, "ECCENTRICITY": 0.00014262, "INCLINATION": 97.9235, "RA_OF_ASC_NODE": 74.8759, "ARG_OF_PERICENTER": 101.505, "MEAN_ANOMALY": 258.6322, "EPHEMERIS_TYPE": 0, "CLASSIFICATION_TYPE": "U", "NORAD_CAT_ID": 60182, "ELEMENT_SET_NO": 999, "REV_AT_EPOCH": 7730, "BSTAR": 0.00053767524, "MEAN_MOTION_DOT": 3.966e-05, "MEAN_MOTION_DDOT": 0}, "tle": {"line1": "1 60182U 24123A   25339.93145384  .00003966  00000+0  53768-3 0  9993", "line2": "2 60182  97.9235  74.8759 0001426 101.5050 258.6322 14.79468095 77307"}}, "geometry": {"type": "Point", "coordinates": [71.09902831079167, 28.382103220074473]}}, {"type": "Feature", "properties": {"norad_id": 60452, "name": "LEGION 3", "group": "resource", "lat": -44.922010928669195, "lon": -110.02634595591178, "alt_km": 524.9101735131035, "timestamp": "2025-12-06T11:28:10.687167+00:00", "meta": {"OBJECT_NAME": "LEGION 3", "OBJECT_ID": "2024-146A", "EPOCH": "2025-12-05T12:09:02.236032", "MEAN_MOTION": 15.15645403, "ECCENTRICITY": 0.001401, "INCLINATION": 45.0024, "RA_OF_ASC_NODE": 348.9065, "ARG_OF_PERICENTER": 158.2247, "MEAN_ANOMALY": 201.9229, "EPHEMERIS_TYPE": 0, "CLASSIFICATION_TYPE": "U", "NORAD_CAT_ID": 60452, "ELEMENT_SET_NO": 999, "REV_AT_EPOCH": 7263, "BSTAR": 0.00052441377, "MEAN_MOTION_DOT": 9.913e-05, "MEAN_MOTION_DDOT": 0}, "tle": {"line1": "1 60452U 24146A   25339.50627588  .00009913  00000+0  52441-3 0  9997", "line2": "2 60452  45.0024 348.9065 0014010 158.2247 201.9229 15.15645403 72631"}}, "geometry": {"type": "Point", "coordinates": [-110.02634595591178, -44.922010928669195]}}]}